EUTELSAT 21B            
1 38992U 12062B   26012.80944906  .00000148  00000+0  00000+0 0  9994
2 38992   0.0743  28.5997 0003156 269.3796 127.3112  1.00273767 48264
EUTELSAT 70B            
1 39020U 12069A   26012.81915580 -.00000025  00000+0  00000+0 0  9996
2 39020   0.0611 355.6493 0003756 273.3024 208.7336  1.00271027 47955
EUTELSAT 117 WEST A     
1 39122U 13012A   26012.63940726  .00000005  00000+0  00000+0 0  9995
2 39122   0.0329 294.2579 0002817   5.7418 285.4929  1.00271573 46874
EUTELSAT 7B             
1 39163U 13022A   26012.80658905  .00000067  00000+0  00000+0 0  9993
2 39163   0.0707 338.0345 0005345 354.8735  76.7597  1.00274177 46387
EXPRESS-AT1             
1 39612U 14010A   26012.81629578  .00000097  00000+0  00000+0 0  9998
2 39612   0.0301 241.9765 0000581 340.7370 239.4515  1.00270693 43261
EXPRESS-AT2             
1 39613U 14010B   26012.90427972 -.00000263  00000+0  00000+0 0  9999
2 39613   0.0142 312.3169 0001664 330.6499 294.8051  1.00271947 42946
EUTELSAT 3B             
1 39773U 14030A   26012.80580905  .00000038  00000+0  00000+0 0  9992
2 39773   0.0601 356.3725 0003380 247.0236 162.0690  1.00271156 42505
EUTELSAT 115 WEST B     
1 40425U 15010B   26012.15613571 -.00000008  00000+0  00000+0 0  9999
2 40425   0.0012  42.3257 0000109 171.7544 198.8700  1.00270484 39823
